ONEWEB-0492             
1 54114U 22138B   25121.70212156  .00000045  00000+0  80413-4 0  9994
2 54114  87.9259  26.7664 0001679  81.0555 279.0768 13.19725609122563
ONEWEB-0495             
1 54115U 22138C   25121.75582018  .00000155  00000+0  35483-3 0  9995
2 54115  87.9260  26.7675 0001365  60.3610 299.7659 13.19725865122553
ONEWEB-0497             
1 54116U 22138D   25121.76845298  .00000112  00000+0  24835-3 0  9991
2 54116  87.9254  26.7391 0001793  77.3955 282.7379 13.19726641122540
ONEWEB-0499             
1 54117U 22138E   25121.75108963  .00000098  00000+0  21156-3 0  9998
2 54117  87.9260  26.7581 0001995  68.5162 291.6183 13.19726671122551
ONEWEB-0500             
1 54118U 22138F   25121.75424761  .00000169  00000+0  39069-3 0  9997
2 54118  87.9258  26.7438 0001849  80.1531 279.9810 13.19726956122561
ONEWEB-0501             
1 54119U 22138G   25121.78425195  .00000092  00000+0  19753-3 0  9996
2 54119  87.9255  26.7319 0001581  67.8238 292.3062 13.19727573122548
ONEWEB-0502             
1 54120U 22138H   25121.77004116  .00000132  00000+0  29845-3 0  9991
2 54120  87.9253  26.7195 0001825  69.9490 290.1839 13.19726487122567
ONEWEB-0503             
1 54121U 22138J   25121.75898690  .00000095  00000+0  20622-3 0  9990
2 54121  87.9253  26.7265 0002157  74.0995 286.0375 13.19726086122555
